EDRS-C                  
1 44475U 19049A   26087.92948718 -.00000281  00000+0  00000+0 0  9998
2 44475   0.0193 146.0606 0001309 207.6458 309.7364  1.00273020 24404
