{
  "norad_id": 44475,
  "name": "EDRS-C",
  "history": [
    {
      "epoch": "2026-03-28T22:18:27.692352",
      "apogee_km": 35791.7680675069,
      "perigee_km": 35780.7294313177,
      "latitude_deg": 0.0016336586125614298,
      "longitude_deg": 156.73076928011142,
      "semi_major_axis_km": 42164.3857494123,
      "eccentricity": 0.0001309,
      "inclination_deg": 0.0193,
      "raan_deg": 146.0606,
      "arg_perigee_deg": 207.6458,
      "mean_anomaly_deg": 309.7364,
      "mean_motion_rev_day": 1.0027302
    }
  ]
}